{
  "norad_id": 63082,
  "name": "STARLINK-32933",
  "history": [
    {
      "epoch": "2026-03-28T22:18:01.241856",
      "apogee_km": 573.759009446364,
      "perigee_km": 570.3573059283854,
      "latitude_deg": 9.66828054254864,
      "longitude_deg": -142.59862016001716,
      "semi_major_axis_km": 6950.195157687374,
      "eccentricity": 0.00024472,
      "inclination_deg": 70.0013,
      "raan_deg": 305.9516,
      "arg_perigee_deg": 267.6814,
      "mean_anomaly_deg": 92.4065,
      "mean_motion_rev_day": 14.98329267
    },
    {
      "epoch": "2026-03-28T23:54:09.093312",
      "apogee_km": 573.8092901893751,
      "perigee_km": 570.2911054298447,
      "latitude_deg": -56.09602184092373,
      "longitude_deg": -136.18989631999284,
      "semi_major_axis_km": 6950.18719780961,
      "eccentricity": 0.0002531,
      "inclination_deg": 70.0012,
      "raan_deg": 305.7833,
      "arg_perigee_deg": 266.7617,
      "mean_anomaly_deg": 93.3252,
      "mean_motion_rev_day": 14.98331841
    }
  ]
}